[{"OBJECT_NAME":"ONEWEB-0264","OBJECT_ID":"2021-060R","EPOCH":"2026-05-11T00:31:21.406656","MEAN_MOTION":13.16596245,"ECCENTRICITY":0.0002128,"INCLINATION":87.9098,"RA_OF_ASC_NODE":236.1638,"ARG_OF_PERICENTER":96.1979,"MEAN_ANOMALY":263.9395,"EPHEMERIS_TYPE":0,"CLASSIFICATION_TYPE":"U","NORAD_CAT_ID":48982,"ELEMENT_SET_NO":999,"REV_AT_EPOCH":23470,"BSTAR":-0.00022407,"MEAN_MOTION_DOT":-7.3e-07,"MEAN_MOTION_DDOT":0.0},{"OBJECT_NAME":"ONEWEB-0266","OBJECT_ID":"2021-060T","EPOCH":"2026-05-11T01:02:08.985120","MEAN_MOTION":13.16595819,"ECCENTRICITY":0.0001895,"INCLINATION":87.9098,"RA_OF_ASC_NODE":236.1498,"ARG_OF_PERICENTER":103.8134,"MEAN_ANOMALY":256.3208,"EPHEMERIS_TYPE":0,"CLASSIFICATION_TYPE":"U","NORAD_CAT_ID":48984,"ELEMENT_SET_NO":999,"REV_AT_EPOCH":23469,"BSTAR":0.00045776000000000004,"MEAN_MOTION_DOT":1.88e-06,"MEAN_MOTION_DDOT":0.0},{"OBJECT_NAME":"ONEWEB-0267","OBJECT_ID":"2021-060U","EPOCH":"2026-05-11T04:56:57.793344","MEAN_MOTION":13.16596234,"ECCENTRICITY":0.0001953,"INCLINATION":87.9102,"RA_OF_ASC_NODE":236.1137,"ARG_OF_PERICENTER":95.0647,"MEAN_ANOMALY":265.0706,"EPHEMERIS_TYPE":0,"CLASSIFICATION_TYPE":"U","NORAD_CAT_ID":48985,"ELEMENT_SET_NO":999,"REV_AT_EPOCH":23472,"BSTAR":0.0002471,"MEAN_MOTION_DOT":1.07e-06,"MEAN_MOTION_DDOT":0.0},{"OBJECT_NAME":"ONEWEB-0268","OBJECT_ID":"2021-060V","EPOCH":"2026-05-10T19:04:13.039968","MEAN_MOTION":13.16593571,"ECCENTRICITY":0.0002105,"INCLINATION":87.9099,"RA_OF_ASC_NODE":236.205,"ARG_OF_PERICENTER":101.236,"MEAN_ANOMALY":258.9008,"EPHEMERIS_TYPE":0,"CLASSIFICATION_TYPE":"U","NORAD_CAT_ID":48986,"ELEMENT_SET_NO":999,"REV_AT_EPOCH":23493,"BSTAR":-0.00010664,"MEAN_MOTION_DOT":-2.8e-07,"MEAN_MOTION_DDOT":0.0},{"OBJECT_NAME":"ONEWEB-0269","OBJECT_ID":"2021-060W","EPOCH":"2026-05-11T00:05:09.929760","MEAN_MOTION":13.16595885,"ECCENTRICITY":0.0002126,"INCLINATION":87.9087,"RA_OF_ASC_NODE":236.1702,"ARG_OF_PERICENTER":104.9249,"MEAN_ANOMALY":255.2118,"EPHEMERIS_TYPE":0,"CLASSIFICATION_TYPE":"U","NORAD_CAT_ID":48987,"ELEMENT_SET_NO":999,"REV_AT_EPOCH":23473,"BSTAR":-7.927800000000001e-05,"MEAN_MOTION_DOT":-1.7e-07,"MEAN_MOTION_DDOT":0.0},{"OBJECT_NAME":"ONEWEB-0270","OBJECT_ID":"2021-060X","EPOCH":"2026-05-11T00:30:14.704128","MEAN_MOTION":13.16595121,"ECCENTRICITY":0.0001699,"INCLINATION":87.9099,"RA_OF_ASC_NODE":236.1617,"ARG_OF_PERICENTER":92.5679,"MEAN_ANOMALY":267.5647,"EPHEMERIS_TYPE":0,"CLASSIFICATION_TYPE":"U","NORAD_CAT_ID":48988,"ELEMENT_SET_NO":999,"REV_AT_EPOCH":23477,"BSTAR":-0.00018099000000000001,"MEAN_MOTION_DOT":-5.6e-07,"MEAN_MOTION_DDOT":0.0},{"OBJECT_NAME":"ONEWEB-0271","OBJECT_ID":"2021-060Y","EPOCH":"2026-05-11T00:12:00.506016","MEAN_MOTION":13.16594505,"ECCENTRICITY":0.000189,"INCLINATION":87.9096,"RA_OF_ASC_NODE":236.155,"ARG_OF_PERICENTER":93.4848,"MEAN_ANOMALY":266.6499,"EPHEMERIS_TYPE":0,"CLASSIFICATION_TYPE":"U","NORAD_CAT_ID":48989,"ELEMENT_SET_NO":999,"REV_AT_EPOCH":23477,"BSTAR":-0.00036012,"MEAN_MOTION_DOT":-1.25e-06,"MEAN_MOTION_DDOT":0.0},{"OBJECT_NAME":"ONEWEB-0272","OBJECT_ID":"2021-060Z","EPOCH":"2026-05-11T00:43:55.309728","MEAN_MOTION":13.16594049,"ECCENTRICITY":0.00022,"INCLINATION":87.91,"RA_OF_ASC_NODE":236.162,"ARG_OF_PERICENTER":96.0454,"MEAN_ANOMALY":264.0927,"EPHEMERIS_TYPE":0,"CLASSIFICATION_TYPE":"U","NORAD_CAT_ID":48990,"ELEMENT_SET_NO":999,"REV_AT_EPOCH":23472,"BSTAR":-0.00015913,"MEAN_MOTION_DOT":-4.8e-07,"MEAN_MOTION_DDOT":0.0},{"OBJECT_NAME":"ONEWEB-0273","OBJECT_ID":"2021-060AA","EPOCH":"2026-05-11T04:54:43.068960","MEAN_MOTION":13.16595309,"ECCENTRICITY":0.0001858,"INCLINATION":87.9102,"RA_OF_ASC_NODE":236.1261,"ARG_OF_PERICENTER":97.0235,"MEAN_ANOMALY":263.1107,"EPHEMERIS_TYPE":0,"CLASSIFICATION_TYPE":"U","NORAD_CAT_ID":48991,"ELEMENT_SET_NO":999,"REV_AT_EPOCH":23472,"BSTAR":0.00028559,"MEAN_MOTION_DOT":1.22e-06,"MEAN_MOTION_DDOT":0.0},{"OBJECT_NAME":"ONEWEB-0274","OBJECT_ID":"2021-060AB","EPOCH":"2026-05-11T05:31:10.850880","MEAN_MOTION":13.16595373,"ECCENTRICITY":0.0002262,"INCLINATION":87.9091,"RA_OF_ASC_NODE":236.1275,"ARG_OF_PERICENTER":98.0534,"MEAN_ANOMALY":262.0853,"EPHEMERIS_TYPE":0,"CLASSIFICATION_TYPE":"U","NORAD_CAT_ID":48992,"ELEMENT_SET_NO":999,"REV_AT_EPOCH":23476,"BSTAR":-5.0061999999999996e-05,"MEAN_MOTION_DOT":-6e-08,"MEAN_MOTION_DDOT":0.0},{"OBJECT_NAME":"ONEWEB-0275","OBJECT_ID":"2021-060AC","EPOCH":"2026-05-11T05:15:12.155616","MEAN_MOTION":13.16596947,"ECCENTRICITY":0.0001993,"INCLINATION":87.9101,"RA_OF_ASC_NODE":236.1152,"ARG_OF_PERICENTER":98.7802,"MEAN_ANOMALY":261.3555,"EPHEMERIS_TYPE":0,"CLASSIFICATION_TYPE":"U","NORAD_CAT_ID":48993,"ELEMENT_SET_NO":999,"REV_AT_EPOCH":23469,"BSTAR":-4.0564e-05,"MEAN_MOTION_DOT":-3e-08,"MEAN_MOTION_DDOT":0.0},{"OBJECT_NAME":"ONEWEB-0276","OBJECT_ID":"2021-060AD","EPOCH":"2026-05-11T00:34:47.801568","MEAN_MOTION":13.1659531,"ECCENTRICITY":0.0002145,"INCLINATION":87.9098,"RA_OF_ASC_NODE":236.1539,"ARG_OF_PERICENTER":99.8853,"MEAN_ANOMALY":260.252,"EPHEMERIS_TYPE":0,"CLASSIFICATION_TYPE":"U","NORAD_CAT_ID":48994,"ELEMENT_SET_NO":999,"REV_AT_EPOCH":23468,"BSTAR":-0.00021151,"MEAN_MOTION_DOT":-6.8e-07,"MEAN_MOTION_DDOT":0.0},{"OBJECT_NAME":"ONEWEB-0277","OBJECT_ID":"2021-060AE","EPOCH":"2026-05-11T00:53:02.694336","MEAN_MOTION":13.16595306,"ECCENTRICITY":0.0001855,"INCLINATION":87.9094,"RA_OF_ASC_NODE":236.162,"ARG_OF_PERICENTER":97.0811,"MEAN_ANOMALY":263.0531,"EPHEMERIS_TYPE":0,"CLASSIFICATION_TYPE":"U","NORAD_CAT_ID":48995,"ELEMENT_SET_NO":999,"REV_AT_EPOCH":23467,"BSTAR":2.8242e-05,"MEAN_MOTION_DOT":2.4e-07,"MEAN_MOTION_DDOT":0.0},{"OBJECT_NAME":"ONEWEB-0278","OBJECT_ID":"2021-060AF","EPOCH":"2026-05-11T00:39:22.635648","MEAN_MOTION":13.16594063,"ECCENTRICITY":0.0001886,"INCLINATION":87.9101,"RA_OF_ASC_NODE":236.1514,"ARG_OF_PERICENTER":108.0057,"MEAN_ANOMALY":252.1279,"EPHEMERIS_TYPE":0,"CLASSIFICATION_TYPE":"U","NORAD_CAT_ID":48996,"ELEMENT_SET_NO":999,"REV_AT_EPOCH":23480,"BSTAR":-9.7744e-05,"MEAN_MOTION_DOT":-2.5e-07,"MEAN_MOTION_DDOT":0.0},{"OBJECT_NAME":"ONEWEB-0279","OBJECT_ID":"2021-060AG","EPOCH":"2026-05-11T00:50:44.144160","MEAN_MOTION":13.16596232,"ECCENTRICITY":0.0002002,"INCLINATION":87.9099,"RA_OF_ASC_NODE":236.1484,"ARG_OF_PERICENTER":93.9654,"MEAN_ANOMALY":266.1706,"EPHEMERIS_TYPE":0,"CLASSIFICATION_TYPE":"U","NORAD_CAT_ID":48997,"ELEMENT_SET_NO":999,"REV_AT_EPOCH":23473,"BSTAR":-2.8920000000000004e-05,"MEAN_MOTION_DOT":2e-08,"MEAN_MOTION_DDOT":0.0},{"OBJECT_NAME":"ONEWEB-0280","OBJECT_ID":"2021-060AH","EPOCH":"2026-05-11T04:51:17.165664","MEAN_MOTION":13.16595326,"ECCENTRICITY":0.0001595,"INCLINATION":87.91,"RA_OF_ASC_NODE":236.1198,"ARG_OF_PERICENTER":101.4977,"MEAN_ANOMALY":258.6333,"EPHEMERIS_TYPE":0,"CLASSIFICATION_TYPE":"U","NORAD_CAT_ID":48998,"ELEMENT_SET_NO":999,"REV_AT_EPOCH":23469,"BSTAR":0.00023671,"MEAN_MOTION_DOT":1.03e-06,"MEAN_MOTION_DDOT":0.0},{"OBJECT_NAME":"ONEWEB-0281","OBJECT_ID":"2021-060AJ","EPOCH":"2026-05-11T04:59:15.095904","MEAN_MOTION":13.16592767,"ECCENTRICITY":0.000194,"INCLINATION":87.9101,"RA_OF_ASC_NODE":236.1133,"ARG_OF_PERICENTER":103.4801,"MEAN_ANOMALY":256.6546,"EPHEMERIS_TYPE":0,"CLASSIFICATION_TYPE":"U","NORAD_CAT_ID":48999,"ELEMENT_SET_NO":999,"REV_AT_EPOCH":23476,"BSTAR":0.00031091999999999996,"MEAN_MOTION_DOT":1.32e-06,"MEAN_MOTION_DDOT":0.0},{"OBJECT_NAME":"ONEWEB-0282","OBJECT_ID":"2021-060AK","EPOCH":"2026-05-11T00:14:17.876832","MEAN_MOTION":13.16594622,"ECCENTRICITY":0.0001829,"INCLINATION":87.9098,"RA_OF_ASC_NODE":236.1618,"ARG_OF_PERICENTER":98.4198,"MEAN_ANOMALY":261.714,"EPHEMERIS_TYPE":0,"CLASSIFICATION_TYPE":"U","NORAD_CAT_ID":49000,"ELEMENT_SET_NO":999,"REV_AT_EPOCH":23471,"BSTAR":-0.00018911,"MEAN_MOTION_DOT":-5.9e-07,"MEAN_MOTION_DDOT":0.0},{"OBJECT_NAME":"ONEWEB-0283","OBJECT_ID":"2021-060AL","EPOCH":"2026-05-11T05:26:37.247136","MEAN_MOTION":13.16596247,"ECCENTRICITY":0.0001966,"INCLINATION":87.9099,"RA_OF_ASC_NODE":236.1185,"ARG_OF_PERICENTER":96.3019,"MEAN_ANOMALY":263.8336,"EPHEMERIS_TYPE":0,"CLASSIFICATION_TYPE":"U","NORAD_CAT_ID":49001,"ELEMENT_SET_NO":999,"REV_AT_EPOCH":23475,"BSTAR":-5.4679e-05,"MEAN_MOTION_DOT":-8e-08,"MEAN_MOTION_DDOT":0.0},{"OBJECT_NAME":"ONEWEB-0284","OBJECT_ID":"2021-060AM","EPOCH":"2026-05-10T23:49:11.236224","MEAN_MOTION":13.16596327,"ECCENTRICITY":0.0001635,"INCLINATION":87.9101,"RA_OF_ASC_NODE":236.1577,"ARG_OF_PERICENTER":106.8446,"MEAN_ANOMALY":253.2864,"EPHEMERIS_TYPE":0,"CLASSIFICATION_TYPE":"U","NORAD_CAT_ID":49002,"ELEMENT_SET_NO":999,"REV_AT_EPOCH":23470,"BSTAR":0.00011516,"MEAN_MOTION_DOT":5.7e-07,"MEAN_MOTION_DDOT":0.0},{"OBJECT_NAME":"ONEWEB-0285","OBJECT_ID":"2021-075A","EPOCH":"2026-05-11T03:52:31.638720","MEAN_MOTION":13.12444001,"ECCENTRICITY":0.00017,"INCLINATION":87.8976,"RA_OF_ASC_NODE":358.0228,"ARG_OF_PERICENTER":81.2257,"MEAN_ANOMALY":278.9064,"EPHEMERIS_TYPE":0,"CLASSIFICATION_TYPE":"U","NORAD_CAT_ID":49075,"ELEMENT_SET_NO":999,"REV_AT_EPOCH":23035,"BSTAR":0.0011866000000000001,"MEAN_MOTION_DOT":4.4e-06,"MEAN_MOTION_DDOT":0.0},{"OBJECT_NAME":"ONEWEB-0286","OBJECT_ID":"2021-075B","EPOCH":"2026-05-11T03:26:43.075104","MEAN_MOTION":13.12444976,"ECCENTRICITY":0.000186,"INCLINATION":87.8967,"RA_OF_ASC_NODE":358.0465,"ARG_OF_PERICENTER":88.4945,"MEAN_ANOMALY":271.6397,"EPHEMERIS_TYPE":0,"CLASSIFICATION_TYPE":"U","NORAD_CAT_ID":49076,"ELEMENT_SET_NO":999,"REV_AT_EPOCH":22970,"BSTAR":0.00057036,"MEAN_MOTION_DOT":2.18e-06,"MEAN_MOTION_DDOT":0.0},{"OBJECT_NAME":"ONEWEB-0287","OBJECT_ID":"2021-075C","EPOCH":"2026-05-11T04:27:27.828864","MEAN_MOTION":13.17649849,"ECCENTRICITY":0.0001873,"INCLINATION":87.9166,"RA_OF_ASC_NODE":13.2217,"ARG_OF_PERICENTER":95.9301,"MEAN_ANOMALY":264.2044,"EPHEMERIS_TYPE":0,"CLASSIFICATION_TYPE":"U","NORAD_CAT_ID":49077,"ELEMENT_SET_NO":999,"REV_AT_EPOCH":22875,"BSTAR":0.00016804,"MEAN_MOTION_DOT":7.8e-07,"MEAN_MOTION_DDOT":0.0}]